{
    "links": {
        "self": "http://www.neowsapp.com/rest/v1/neo/3836752?api_key=iIulBulltgU6a56xZRHN4H3l9WmuAYTsLGpBGhQ2"
    },
    "id": "3836752",
    "neo_reference_id": "3836752",
    "name": "(2018 XA2)",
    "designation": "2018 XA2",
    "nasa_jpl_url": "http://ssd.jpl.nasa.gov/sbdb.cgi?sstr=3836752",
    "absolute_magnitude_h": 26.8,
    "estimated_diameter": {
        "kilometers": {
            "estimated_diameter_min": 0.0116025908,
            "estimated_diameter_max": 0.0259441818
        },
        "meters": {
            "estimated_diameter_min": 11.6025908209,
            "estimated_diameter_max": 25.9441817907
        },
        "miles": {
            "estimated_diameter_min": 0.0072095135,
            "estimated_diameter_max": 0.0161209622
        },
        "feet": {
            "estimated_diameter_min": 38.066244069,
            "estimated_diameter_max": 85.1187093863
        }
    },
    "is_potentially_hazardous_asteroid": false,
    "close_approach_data": [
        {
            "close_approach_date": "2017-01-06",
            "close_approach_date_full": "2017-Jan-06 11:13",
            "epoch_date_close_approach": 1483701180000,
            "relative_velocity": {
                "kilometers_per_second": "14.2530775297",
                "kilometers_per_hour": "51311.0791070356",
                "miles_per_hour": "31882.7091262577"
            },
            "miss_distance": {
                "astronomical": "0.3367215422",
                "lunar": "130.9846799158",
                "kilometers": "50372825.496235114",
                "miles": "31300222.3527640132"
            },
            "orbiting_body": "Earth"
        },
        {
            "close_approach_date": "2018-12-10",
            "close_approach_date_full": "2018-Dec-10 05:04",
            "epoch_date_close_approach": 1544418240000,
            "relative_velocity": {
                "kilometers_per_second": "6.2491950269",
                "kilometers_per_hour": "22497.1020967207",
                "miles_per_hour": "13978.8243555985"
            },
            "miss_distance": {
                "astronomical": "0.0456976843",
                "lunar": "17.7763991927",
                "kilometers": "6836276.235212441",
                "miles": "4247865.0764400458"
            },
            "orbiting_body": "Earth"
        }
    ],
    "orbital_data": {
        "orbit_id": "1",
        "orbit_determination_date": "2018-12-12 04:12:12",
        "first_observation_date": "2018-12-09",
        "last_observation_date": "2018-12-12",
        "data_arc_in_days": 3,
        "observations_used": 25,
        "orbit_uncertainty": "8",
        "minimum_orbit_intersection": ".0444127",
        "jupiter_tisserand_invariant": "4.350",
        "epoch_osculation": "2458461.5",
        "eccentricity": ".3437351848996515",
        "semi_major_axis": "1.561535461190363",
        "inclination": "8.271966510118743",
        "ascending_node_longitude": "261.363679306723",
        "orbital_period": "712.7319106463896",
        "perihelion_distance": "1.024780780710731",
        "perihelion_argument": "166.6116560777881",
        "aphelion_distance": "2.098290141669995",
        "perihelion_time": "2458454.304751831952",
        "mean_anomaly": "3.634310884366184",
        "mean_motion": ".5050987539950462",
        "equinox": "J2000",
        "orbit_class": {
            "orbit_class_type": "AMO",
            "orbit_class_description": "Near-Earth asteroid orbits similar to that of 1221 Amor",
            "orbit_class_range": "1.017 AU < q (perihelion) < 1.3 AU"
        }
    },
    "is_sentry_object": false
}